[{"OBJECT_NAME":"STARLINK-1568","OBJECT_ID":"2020-055BF","EPOCH":"2026-03-09T07:11:52.075392","MEAN_MOTION":15.46537156,"ECCENTRICITY":0.00059127,"INCLINATION":53.0625,"RA_OF_ASC_NODE":34.8379,"ARG_OF_PERICENTER":113.1851,"MEAN_ANOMALY":246.9779,"EPHEMERIS_TYPE":0,"CLASSIFICATION_TYPE":"U","NORAD_CAT_ID":46080,"ELEMENT_SET_NO":999,"REV_AT_EPOCH":31013,"BSTAR":0.0010677195,"MEAN_MOTION_DOT":0.00053888,"MEAN_MOTION_DDOT":0},{"OBJECT_NAME":"JILIN-1 GAOFEN 03D53","OBJECT_ID":"2022-155C","EPOCH":"2026-03-09T21:59:34.489824","MEAN_MOTION":15.46744133,"ECCENTRICITY":0.00055317,"INCLINATION":97.6077,"RA_OF_ASC_NODE":203.8168,"ARG_OF_PERICENTER":17.7738,"MEAN_ANOMALY":342.3704,"EPHEMERIS_TYPE":0,"CLASSIFICATION_TYPE":"U","NORAD_CAT_ID":54253,"ELEMENT_SET_NO":999,"REV_AT_EPOCH":18411,"BSTAR":0.00074680835,"MEAN_MOTION_DOT":0.00037423,"MEAN_MOTION_DDOT":0}]
